STARLINK-34678          
1 65443U 25194K   25260.91668981 -.01915673  00000+0 -19492-1 0  9995
2 65443  97.6024 112.5128 0001837  86.3746 113.1543 15.68088473  2814
STARLINK-35049          
1 65444U 25194L   25260.91668981 -.01908863  00000+0 -19418-1 0  9997
2 65444  97.6021 112.5096 0001827  85.7861 107.9821 15.68083773  2768
STARLINK-35029          
1 65445U 25194M   25260.91668981 -.01909267  00000+0 -19423-1 0  9993
2 65445  97.6021 112.5113 0001828  87.7440 109.8661 15.68083797  2810
STARLINK-34991          
1 65446U 25194N   25260.91668981 -.01905581  00000+0 -19380-1 0  9991
2 65446  97.6021 112.5132 0001934  84.8506 116.5989 15.68082439  2765
STARLINK-34920          
1 65447U 25194P   25260.91668981 -.01905203  00000+0 -19376-1 0  9998
2 65447  97.6022 112.5139 0001855  87.6485 115.7213 15.68082969  2762
STARLINK-35030          
1 65448U 25194Q   25260.91668981 -.01910045  00000+0 -19431-1 0  9991
2 65448  97.6026 112.5164 0001839  86.1037 121.1087 15.68084660  2764
STARLINK-35009          
1 65449U 25194R   25260.91668981 -.01910632  00000+0 -19436-1 0  9999
2 65449  97.6021 112.5143 0001861  85.1272 120.1631 15.68085784  2764
STARLINK-34970          
1 65450U 25194S   25260.91668981 -.01914327  00000+0 -19479-1 0  9993
2 65450  97.6025 112.5166 0001857  86.2437 122.8914 15.68085964  2814
STARLINK-35039          
1 65451U 25194T   25260.91668981 -.01909311  00000+0 -19422-1 0  9999
2 65451  97.6026 112.5179 0001840  84.9174 126.1357 15.68084547  2820
STARLINK-35084          
1 65452U 25194U   25260.91668981 -.01913427  00000+0 -19468-1 0  9993
2 65452  97.6027 112.5187 0001813  86.0922 126.8817 15.68086885  2763
STARLINK-34988          
1 65453U 25194V   25260.91668981  .00342762  47408-4  97271-3 0  9997
2 65453  97.5969 112.6600 0000359  51.9601 112.8922 15.93359289  2815
STARLINK-35059          
1 65454U 25194W   25257.94998934  .00367319  00000+0  16140-2 0  9993
2 65454  97.5984 109.2913 0001680  59.5231 300.6204 15.83637137  3083
STARLINK-34728          
1 65455U 25194X   25260.91668981 -.01911960  00000+0 -19450-1 0  9997
2 65455  97.6025 112.5240 0001756  85.6154 135.0369 15.68088340  2810
STARLINK-35005          
1 65456U 25194Y   25260.91668981 -.01908220  00000+0 -19411-1 0  9990
2 65456  97.6028 112.5227 0001813  88.0194 130.7172 15.68083618  2811
STARLINK-35076          
1 65457U 25194Z   25260.91668981 -.01916324  00000+0 -19499-1 0  9991
2 65457  97.6027 112.5244 0001843  87.2564 135.3197 15.68089006  2821
STARLINK-34784          
1 65458U 25195A   25260.91668981 -.01673658  00000+0 -16959-1 0  9991
2 65458  53.1597 345.9364 0001291  76.7642  70.3686 15.67749860  2778
STARLINK-34867          
1 65459U 25195B   25260.91668981 -.01672144  00000+0 -16944-1 0  9995
2 65459  53.1597 345.9329 0001240  61.8758  87.1775 15.67745949  2776
STARLINK-34850          
1 65460U 25195C   25260.91668981 -.01673135  00000+0 -16956-1 0  9991
2 65460  53.1597 345.9288 0001149  63.1464  87.8231 15.67746859  2774
STARLINK-35159          
1 65461U 25195D   25260.91668981 -.01674733  00000+0 -16972-1 0  9995
2 65461  53.1596 345.9247 0001288  63.4257  89.4584 15.67749068  2826
STARLINK-35180          
1 65462U 25195E   25260.91668981 -.01675777  00000+0 -16983-1 0  9997
2 65462  53.1595 345.9208 0001249  62.1440  92.6568 15.67749796  2770
STARLINK-35111          
1 65463U 25195F   25260.91668981 -.01679391  00000+0 -17023-1 0  9990
2 65463  53.1596 345.9168 0001301  63.8549  92.8612 15.67751800  2821
STARLINK-35107          
1 65464U 25195G   25260.91668981 -.01679371  00000+0 -17022-1 0  9998
2 65464  53.1596 345.9122 0001305  64.4918  94.1401 15.67752534  2829
STARLINK-35169          
1 65465U 25195H   25260.91668981 -.01670463  00000+0 -16926-1 0  9994
2 65465  53.1596 345.9042 0001204  63.2778  99.1938 15.67744935  2826
STARLINK-35027          
1 65466U 25195J   25260.91668981 -.01675100  00000+0 -16975-1 0  9992
2 65466  53.1595 345.9008 0001383  68.0207  96.3651 15.67748898  2773
STARLINK-34816          
1 65467U 25195K   25260.91668981 -.01675315  00000+0 -16979-1 0  9995
2 65467  53.1594 345.8970 0001194  64.8581 101.4446 15.67748955  2773
STARLINK-35033          
1 65468U 25195L   25260.91668981 -.01680341  00000+0 -17034-1 0  9994
2 65468  53.1596 345.8850 0001281  65.0168 107.0336 15.67752739  2779
STARLINK-34924          
1 65469U 25195M   25260.91668981 -.01673816  00000+0 -16962-1 0  9993
2 65469  53.1594 345.8804 0001230  69.3586 104.6122 15.67747819  2771
STARLINK-34829          
1 65470U 25195N   25260.91668981 -.01675514  00000+0 -16981-1 0  9993
2 65470  53.1597 345.9085 0001219  65.9152  94.6363 15.67749783  2773
STARLINK-34888          
1 65471U 25195P   25260.91668981 -.01677150  00000+0 -16999-1 0  9991
2 65471  53.1596 345.8924 0001233  64.6503 103.5678 15.67750847  2778
STARLINK-34799          
1 65472U 25195Q   25260.91668981 -.01675571  00000+0 -16982-1 0  9999
2 65472  53.1595 345.8880 0001166  67.0289 103.1071 15.67749388  2773
STARLINK-34762          
1 65473U 25195R   25260.91668981 -.01675977  00000+0 -16986-1 0  9994
2 65473  53.1596 345.8723 0001190  66.9514 110.8516 15.67749915  2772
STARLINK-34998          
1 65474U 25195S   25260.91668981 -.01677045  00000+0 -16998-1 0  9996
2 65474  53.1596 345.8682 0001230  65.1069 114.6135 15.67749746  2667
STARLINK-34832          
1 65475U 25195T   25260.91668981 -.01676812  00000+0 -16995-1 0  9995
2 65475  53.1596 345.8759 0001194  69.5674 106.3190 15.67750450  2777
STARLINK-35098          
1 65476U 25195U   25260.91668981 -.01686485  00000+0 -17103-1 0  9995
2 65476  53.1595 345.8643 0001260  69.8318 111.8050 15.67754447  2834
STARLINK-35071          
1 65477U 25195V   25260.91668981 -.01679565  00000+0 -17027-1 0  9992
2 65477  53.1593 345.8601 0001193  68.2748 115.2793 15.67751008  2834
STARLINK-35093          
1 65478U 25195W   25260.91668981 -.01681472  00000+0 -17047-1 0  9995
2 65478  53.1593 345.8525 0001221  71.3880 115.9996 15.67752293  2833
STARLINK-35096          
1 65479U 25195X   25260.91668981 -.01687682  00000+0 -17116-1 0  9992
2 65479  53.1593 345.8477 0001278  70.7285 118.5750 15.67755482  2777
STARLINK-35040          
1 65480U 25195Y   25260.91668981 -.00077318  00000+0 -52810-3 0  9994
2 65480  53.1612 345.8000 0001314  90.5579 122.1970 15.74204442  2835
STARLINK-35042          
1 65481U 25195Z   25260.91668981 -.01681381  00000+0 -17046-1 0  9997
2 65481  53.1593 345.8564 0001249  71.4644 114.0068 15.67751979  2839
STARLINK-35038          
1 65482U 25195AA  25260.91668981 -.00034997  00000+0 -23569-3 0  9991
2 65482  53.1615 345.7958 0001030  97.6016 117.0740 15.74184685  2834
STARLINK-35037          
1 65483U 25195AB  25260.91668981 -.00065579  00000+0 -44677-3 0  9995
2 65483  53.1614 345.7923 0000937  89.6249 126.9631 15.74198883  2833
STARLINK-35089          
1 65484U 25195AC  25260.91668981 -.00086794  00000+0 -59394-3 0  9990
2 65484  53.1610 345.7842 0000988 105.3584 115.0633 15.74208286  2834
STARLINK-35143          
1 65485U 25195AD  25260.91668981 -.00081462  00000+0 -55696-3 0  9999
2 65485  53.1577 345.7879 0001071  93.2199 125.2857 15.74203012  2785
SHIYAN-29               
1 65486U 25196A   25260.88302373 -.00000268  00000+0  00000+0 0  9996
2 65486  28.5235  21.9599 0089864 131.1937 321.6475  0.98869172   155
CZ-3C R/B               
1 65487U 25196B   25251.41819693  .00025655  00000+0  33348-2 0  9994
2 65487  28.4934  20.6057 6976947 130.0484 315.6750  2.68841397   106
2025-197A               
1 65488U 25197A   25251.16062515  .00005816  00000+0  26729-3 0  9994
2 65488  97.4119  76.9324 0014067 275.9123  84.0509 15.20666998   415
2025-197B               
1 65489U 25197B   25251.16057737  .00005565  00000+0  25580-3 0  9990
2 65489  97.4117  76.9325 0013220 277.6459  82.3275 15.20695336   404
2025-197C               
1 65490U 25197C   25251.16005615  .00005255  00000+0  23957-3 0  9992
2 65490  97.4119  76.9333 0014092 282.0844  77.8812 15.20990825   398
2025-197D               
1 65491U 25197D   25251.15999517  .00006845  00000+0  31070-3 0  9996
2 65491  97.4117  76.9332 0013873 282.8608  77.1078 15.21031443   398
YAOGAN-40 03A           
1 65544U 25199A   25260.96323715  .00000332  00000+0  13034-3 0  9992
2 65544  85.9953 166.1901 0011888 215.8540 144.1854 14.26262149  1612
YAOGAN-40 03B           
1 65545U 25199B   25259.22716156  .00000010  00000+0 -46741-5 0  9992
2 65545  85.9984 167.0084 0004364 309.8832  50.1969 14.15782122  1369
YAOGAN-40 03C           
1 65546U 25199C   25260.14724710  .00000327  00000+0  15512-3 0  9991
2 65546  85.9976 166.5933 0017238 289.4978  70.4345 14.16375968  1490
CZ-6A DEB               
1 65547U 25199D   25260.94424290  .00000327  00000+0  11471-3 0  9990
2 65547  85.9962 166.1807 0013965 264.4484  95.5117 14.32001106  1617
CZ-6A DEB               
1 65548U 25199E   25260.95790629  .00000109  00000+0  36920-4 0  9999
2 65548  85.9958 166.1873 0010226 230.4703 129.5585 14.26936032  1570
CZ-6A R/B               
1 65549U 25199F   25260.94676265  .00000508  00000+0  88857-4 0  9997
2 65549  86.0173 165.9384 0069686  33.0705 327.4834 14.64054420  1647
GEESAT-5 A              
1 65550U 25201A   25258.31723140  .00000687  00000+0  11044-3 0  9997
2 65550  49.9886 234.9363 0005414 308.8619  51.1835 14.83262875   971
GEESAT-5 B              
1 65551U 25201B   25258.45097634  .00000395  00000+0  75721-4 0  9994
2 65551  49.9844 234.3032 0007756 330.3420  29.7077 14.82919164   983
GEESAT-5 C              
1 65552U 25201C   25258.44952935  .00000594  00000+0  96424-4 0  9992
2 65552  49.9848 234.2962 0005230 292.2550  67.7833 14.84553174   983
GEESAT-5 D              
1 65553U 25201D   25258.44386956  .00000857  00000+0  11811-3 0  9995
2 65553  49.9834 234.2591 0010326 307.2812  52.7186 14.87911560   982
